0 DELTA 1 DEB
1 26841U 75052KV  13276.37317426  .00000521  00000-0  13509-2 0  4906
2 26841 099.9299 326.4948 0521382 335.3835 081.0615 12.81721822  2172
0 DELTA 1 DEB
1 26841U 75052KV  13281.36863722  .00000702  00000-0  17851-2 0  4912
2 26841 099.9336 330.9355 0521894 324.3644 091.2401 12.81728070  2819
0 DELTA 1 DEB
1 26841U 75052KV  13287.00173737  .00000877  00000-0  22035-2 0  4923
2 26841 099.9344 335.9458 0522366 311.9218 163.8052 12.81737732  3534
0 DELTA 1 DEB
1 26841U 75052KV  13288.39451659  .00000999  00000-0  25064-2 0  4939
2 26841 099.9570 337.2753 0520925 308.7732 110.5957 12.81739078  3710
0 DELTA 1 DEB
1 26841U 75052KV  13289.08933567  .00000933  00000-0  23428-2 0  4940
2 26841 099.9224 337.7749 0521583 307.3390 076.5424 12.81741220  3804
